[
    {
        "Altitude(m)": 622200.1465137972,
        "Argument of Periapsis(deg)": 0.0,
        "Eccentricity": 0.0,
        "Inclination(deg)": 60.0,
        "Latitude(deg)": -52.16264673092992,
        "Longitude(deg)": -112.63930709469798,
        "Mean Anomaly(deg)": 294.5455,
        "RAAN(deg)": 35.0,
        "Satellite Name": "Test1 172",
        "Satellite Number": 172,
        "Semi-Major Axis(m)": 6980739.136638005,
        "Time(s)": 0
    },
    {
        "Altitude(m)": 622058.3146098256,
        "Argument of Periapsis(deg)": 0.00010418945913296404,
        "Eccentricity": 0.0,
        "Inclination(deg)": 60.0,
        "Latitude(deg)": -51.799397006307416,
        "Longitude(deg)": -111.87124659197107,
        "Mean Anomaly(deg)": 295.1656061454619,
        "RAAN(deg)": 34.99957995086025,
        "Satellite Name": "Test1 172",
        "Satellite Number": 172,
        "Semi-Major Axis(m)": 6980739.136638005,
        "Time(s)": 10
    },
    {
        "Altitude(m)": 621913.7494046792,
        "Argument of Periapsis(deg)": 0.0002083789182659281,
        "Eccentricity": 0.0,
        "Inclination(deg)": 60.0,
        "Latitude(deg)": -51.43063567580077,
        "Longitude(deg)": -111.1161649265546,
        "Mean Anomaly(deg)": 295.78571229092364,
        "RAAN(deg)": 34.99915990172051,
        "Satellite Name": "Test1 172",
        "Satellite Number": 172,
        "Semi-Major Axis(m)": 6980739.136638005,
        "Time(s)": 20
    },
    {
        "Altitude(m)": 621766.5073375468,
        "Argument of Periapsis(deg)": 0.00031256837739889213,
        "Eccentricity": 0.0,
        "Inclination(deg)": 60.0,
        "Latitude(deg)": -51.05651986109577,
        "Longitude(deg)": -110.37387240130695,
        "Mean Anomaly(deg)": 296.4058184363856,
        "RAAN(deg)": 34.99873985258077,
        "Satellite Name": "Test1 172",
        "Satellite Number": 172,
        "Semi-Major Axis(m)": 6980739.136638005,
        "Time(s)": 30
    },
    {
        "Altitude(m)": 621616.6458640309,
        "Argument of Periapsis(deg)": 0.0004167578365318562,
        "Eccentricity": 0.0,
        "Inclination(deg)": 60.0,
        "Latitude(deg)": -50.677202993334404,
        "Longitude(deg)": -109.64417155342151,
        "Mean Anomaly(deg)": 297.02592458184733,
        "RAAN(deg)": 34.998319803441035,
        "Satellite Name": "Test1 172",
        "Satellite Number": 172,
        "Semi-Major Axis(m)": 6980739.136638005,
        "Time(s)": 40
    },
    {
        "Altitude(m)": 621464.2234315474,
        "Argument of Periapsis(deg)": 0.0005209472956648203,
        "Eccentricity": 0.0,
        "Inclination(deg)": 60.0,
        "Latitude(deg)": -50.29283478610704,
        "Longitude(deg)": -108.92685920428228,
        "Mean Anomaly(deg)": 297.6460307273092,
        "RAAN(deg)": 34.99789975430128,
        "Satellite Name": "Test1 172",
        "Satellite Number": 172,
        "Semi-Major Axis(m)": 6980739.136638005,
        "Time(s)": 50
    },
    {
        "Altitude(m)": 621309.2994542602,
        "Argument of Periapsis(deg)": 0.0006251367547977843,
        "Eccentricity": 0.0,
        "Inclination(deg)": 60.0,
        "Latitude(deg)": -49.90356122300145,
        "Longitude(deg)": -108.22172692709718,
        "Mean Anomaly(deg)": 298.266136872771,
        "RAAN(deg)": 34.99747970516154,
        "Satellite Name": "Test1 172",
        "Satellite Number": 172,
        "Semi-Major Axis(m)": 6980739.136638005,
        "Time(s)": 60
    },
    {
        "Altitude(m)": 621151.9342876305,
        "Argument of Periapsis(deg)": 0.0007293262139307483,
        "Eccentricity": 0.0,
        "Inclination(deg)": 60.0,
        "Latitude(deg)": -49.50952455830263,
        "Longitude(deg)": -107.52856144658752,
        "Mean Anomaly(deg)": 298.88624301823285,
        "RAAN(deg)": 34.9970596560218,
        "Satellite Name": "Test1 172",
        "Satellite Number": 172,
        "Semi-Major Axis(m)": 6980739.136638005,
        "Time(s)": 70
    },
    {
        "Altitude(m)": 620992.1892024779,
        "Argument of Periapsis(deg)": 0.0008335156730637124,
        "Eccentricity": 0.0,
        "Inclination(deg)": 60.0,
        "Latitude(deg)": -49.1108633295116,
        "Longitude(deg)": -106.84714648543489,
        "Mean Anomaly(deg)": 299.50634916369467,
        "RAAN(deg)": 34.996639606882056,
        "Satellite Name": "Test1 172",
        "Satellite Number": 172,
        "Semi-Major Axis(m)": 6980739.136638005,
        "Time(s)": 80
    },
    {
        "Altitude(m)": 620830.126358686,
        "Argument of Periapsis(deg)": 0.0009377051321966765,
        "Eccentricity": 0.0,
        "Inclination(deg)": 60.0,
        "Latitude(deg)": -48.70771238042379,
        "Longitude(deg)": -106.17726303388683,
        "Mean Anomaly(deg)": 300.1264553091565,
        "RAAN(deg)": 34.996219557742315,
        "Satellite Name": "Test1 172",
        "Satellite Number": 172,
        "Semi-Major Axis(m)": 6980739.136638005,
        "Time(s)": 90
    },
    {
        "Altitude(m)": 620665.8087784719,
        "Argument of Periapsis(deg)": 0.0010418945913296407,
        "Eccentricity": 0.0,
        "Inclination(deg)": 60.0,
        "Latitude(deg)": -48.300202893583545,
        "Longitude(deg)": -105.51868955781649,
        "Mean Anomaly(deg)": 300.74656145461836,
        "RAAN(deg)": 34.99579950860257,
        "Satellite Name": "Test1 172",
        "Satellite Number": 172,
        "Semi-Major Axis(m)": 6980739.136638005,
        "Time(s)": 100
    },
    {
        "Altitude(m)": 620499.3003192774,
        "Argument of Periapsis(deg)": 0.0011460840504626045,
        "Eccentricity": 0.0,
        "Inclination(deg)": 60.0,
        "Latitude(deg)": -47.88846243100642,
        "Longitude(deg)": -104.87120366072836,
        "Mean Anomaly(deg)": 301.3666676000801,
        "RAAN(deg)": 34.99537945946283,
        "Satellite Name": "Test1 172",
        "Satellite Number": 172,
        "Semi-Major Axis(m)": 6980739.136638005,
        "Time(s)": 110
    },
    {
        "Altitude(m)": 620330.665646258,
        "Argument of Periapsis(deg)": 0.0012502735095955685,
        "Eccentricity": 0.0,
        "Inclination(deg)": 60.0,
        "Latitude(deg)": -47.472614982139945,
        "Longitude(deg)": -104.23458217671319,
        "Mean Anomaly(deg)": 301.986773745542,
        "RAAN(deg)": 34.99495941032309,
        "Satellite Name": "Test1 172",
        "Satellite Number": 172,
        "Semi-Major Axis(m)": 6980739.136638005,
        "Time(s)": 120
    },
    {
        "Altitude(m)": 620159.9702044363,
        "Argument of Periapsis(deg)": 0.0013544629687285324,
        "Eccentricity": 0.0,
        "Inclination(deg)": 60.0,
        "Latitude(deg)": -47.05278101810683,
        "Longitude(deg)": -103.6086012100762,
        "Mean Anomaly(deg)": 302.6068798910038,
        "RAAN(deg)": 34.99453936118335,
        "Satellite Name": "Test1 172",
        "Satellite Number": 172,
        "Semi-Major Axis(m)": 6980739.136638005,
        "Time(s)": 130
    },
    {
        "Altitude(m)": 619987.2801904603,
        "Argument of Periapsis(deg)": 0.0014586524278614966,
        "Eccentricity": 0.0,
        "Inclination(deg)": 60.0,
        "Latitude(deg)": -46.62907755134782,
        "Longitude(deg)": -102.99303763741088,
        "Mean Anomaly(deg)": 303.22698603646563,
        "RAAN(deg)": 34.99411931204361,
        "Satellite Name": "Test1 172",
        "Satellite Number": 172,
        "Semi-Major Axis(m)": 6980739.136638005,
        "Time(s)": 140
    },
    {
        "Altitude(m)": 619812.6625240393,
        "Argument of Periapsis(deg)": 0.0015628418869944607,
        "Eccentricity": 0.0,
        "Inclination(deg)": 60.0,
        "Latitude(deg)": -46.20161819985529,
        "Longitude(deg)": -102.38766904927368,
        "Mean Anomaly(deg)": 303.84709218192745,
        "RAAN(deg)": 34.99369926290385,
        "Satellite Name": "Test1 172",
        "Satellite Number": 172,
        "Semi-Major Axis(m)": 6980739.136638005,
        "Time(s)": 150
    },
    {
        "Altitude(m)": 619636.1848190348,
        "Argument of Periapsis(deg)": 0.0016670313461274247,
        "Eccentricity": 0.0,
        "Inclination(deg)": 60.0,
        "Latitude(deg)": -45.7705132552544,
        "Longitude(deg)": -101.79227364722513,
        "Mean Anomaly(deg)": 304.46719832738927,
        "RAAN(deg)": 34.99327921376411,
        "Satellite Name": "Test1 172",
        "Satellite Number": 172,
        "Semi-Major Axis(m)": 6980739.136638005,
        "Time(s)": 160
    },
    {
        "Altitude(m)": 619457.9153542281,
        "Argument of Periapsis(deg)": 0.0017712208052603888,
        "Eccentricity": 0.0,
        "Inclination(deg)": 60.0,
        "Latitude(deg)": -45.33586975405408,
        "Longitude(deg)": -101.20663161195816,
        "Mean Anomaly(deg)": 305.0873044728511,
        "RAAN(deg)": 34.99285916462437,
        "Satellite Name": "Test1 172",
        "Satellite Number": 172,
        "Semi-Major Axis(m)": 6980739.136638005,
        "Time(s)": 170
    },
    {
        "Altitude(m)": 619277.9230437657,
        "Argument of Periapsis(deg)": 0.001875410264393353,
        "Eccentricity": 0.0,
        "Inclination(deg)": 60.0,
        "Latitude(deg)": -44.89779155145426,
        "Longitude(deg)": -100.63052491954156,
        "Mean Anomaly(deg)": 305.70741061831296,
        "RAAN(deg)": 34.99243911548463,
        "Satellite Name": "Test1 172",
        "Satellite Number": 172,
        "Semi-Major Axis(m)": 6980739.136638005,
        "Time(s)": 180
    },
    {
        "Altitude(m)": 619096.2774073168,
        "Argument of Periapsis(deg)": 0.0019795997235263173,
        "Eccentricity": 0.0,
        "Inclination(deg)": 60.0,
        "Latitude(deg)": -44.45637939715284,
        "Longitude(deg)": -100.06373712135273,
        "Mean Anomaly(deg)": 306.3275167637747,
        "RAAN(deg)": 34.99201906634489,
        "Satellite Name": "Test1 172",
        "Satellite Number": 172,
        "Semi-Major Axis(m)": 6980739.136638005,
        "Time(s)": 190
    }
]